start=new Date('2022-02-18T00:00:00.000Z').valueOf();
sats=[{"RA_OF_ASC_NODE":"94.3830","MEAN_MOTION_DDOT":"0.0000000000000","OBJECT_TYPE":"PAYLOAD","REV_AT_EPOCH":"11326","TLE_LINE2":"2 45047  53.0531  94.3830 0001397  70.2249 289.8891 15.06412390113269","DECAY_DATE":null,"REF_FRAME":"TEME","ECCENTRICITY":"0.00013970","CENTER_NAME":"EARTH","COUNTRY_CODE":"US","FILE":"3305402","ELEMENT_SET_NO":"999","TIME_SYSTEM":"UTC","OBJECT_NAME":"STARLINK-1131","PERIAPSIS":"546.208","EPOCH":"2022-02-17T20:20:24.477792","NORAD_CAT_ID":"45047","CLASSIFICATION_TYPE":"U","MEAN_ANOMALY":"289.8891","PERIOD":"95.591","RCS_SIZE":"LARGE","EPHEMERIS_TYPE":"0","SITE":"AFETR","SEMIMAJOR_AXIS":"6925.311","MEAN_ELEMENT_THEORY":"SGP4","OBJECT_ID":"2020-006D","ARG_OF_PERICENTER":"70.2249","BSTAR":"0.00028920000000","MEAN_MOTION_DOT":"0.00004030","GP_ID":"196240844","APOAPSIS":"548.143","INCLINATION":"53.0531","LAUNCH_DATE":"2020-01-29","TLE_LINE1":"1 45047U 20006D   22048.84750553  .00004030  00000-0  28920-3 0  9992","MEAN_MOTION":"15.06412390"},{"APOAPSIS":"548.135","INCLINATION":"53.0541","GP_ID":"196241595","LAUNCH_DATE":"2020-01-29","MEAN_MOTION":"15.06406297","TLE_LINE1":"1 45048U 20006E   22048.85487984  .00001174  00000-0  97709-4 0  9997","BSTAR":"0.00009770900000","OBJECT_ID":"2020-006E","ARG_OF_PERICENTER":"79.2393","MEAN_MOTION_DOT":"0.00001174","SITE":"AFETR","PERIOD":"95.592","EPHEMERIS_TYPE":"0","RCS_SIZE":"LARGE","SEMIMAJOR_AXIS":"6925.329","MEAN_ELEMENT_THEORY":"SGP4","EPOCH":"2022-02-17T20:31:01.618176","PERIAPSIS":"546.253","OBJECT_NAME":"STARLINK-1134","CLASSIFICATION_TYPE":"U","MEAN_ANOMALY":"280.8749","NORAD_CAT_ID":"45048","ELEMENT_SET_NO":"999","FILE":"3305402","TIME_SYSTEM":"UTC","REF_FRAME":"TEME","ECCENTRICITY":"0.00013590","CENTER_NAME":"EARTH","COUNTRY_CODE":"US","OBJECT_TYPE":"PAYLOAD","DECAY_DATE":null,"TLE_LINE2":"2 45048  53.0541  94.3390 0001359  79.2393 280.8749 15.06406297113261","REV_AT_EPOCH":"11326","MEAN_MOTION_DDOT":"0.0000000000000","RA_OF_ASC_NODE":"94.3390"},{"RA_OF_ASC_NODE":"94.3279","MEAN_MOTION_DDOT":"0.0000000000000","OBJECT_TYPE":"PAYLOAD","DECAY_DATE":null,"TLE_LINE2":"2 45049  53.0532  94.3279 0001721  55.2358 304.8793 15.06699476113265","REV_AT_EPOCH":"11326","ECCENTRICITY":"0.00017210","REF_FRAME":"TEME","COUNTRY_CODE":"US","CENTER_NAME":"EARTH","ELEMENT_SET_NO":"999","FILE":"3305402","TIME_SYSTEM":"UTC","OBJECT_NAME":"STARLINK-1135","EPOCH":"2022-02-17T20:34:26.782752","PERIAPSIS":"545.104","NORAD_CAT_ID":"45049","MEAN_ANOMALY":"304.8793","CLASSIFICATION_TYPE":"U","RCS_SIZE":"LARGE","EPHEMERIS_TYPE":"0","PERIOD":"95.573","SITE":"AFETR","MEAN_ELEMENT_THEORY":"SGP4","SEMIMAJOR_AXIS":"6924.431","BSTAR":"0.00057185000000","ARG_OF_PERICENTER":"55.2358","OBJECT_ID":"2020-006F","MEAN_MOTION_DOT":"0.00008315","GP_ID":"196241846","INCLINATION":"53.0532","APOAPSIS":"547.488","TLE_LINE1":"1 45049U 20006F   22048.85725443  .00008315  00000-0  57185-3 0  9990","MEAN_MOTION":"15.06699476","LAUNCH_DATE":"2020-01-29"},{"GP_ID":"196204737","APOAPSIS":"548.264","INCLINATION":"53.0524","LAUNCH_DATE":"2020-01-29","TLE_LINE1":"1 45050U 20006G   22048.53420284  .00002084  00000-0  15873-3 0  9997","MEAN_MOTION":"15.06402713","ARG_OF_PERICENTER":"75.1039","BSTAR":"0.00015873000000","OBJECT_ID":"2020-006G","MEAN_MOTION_DOT":"0.00002084","PERIOD":"95.592","EPHEMERIS_TYPE":"0","RCS_SIZE":"LARGE","SITE":"AFETR","SEMIMAJOR_AXIS":"6925.340","MEAN_ELEMENT_THEORY":"SGP4","OBJECT_NAME":"STARLINK-1140","PERIAPSIS":"546.146","EPOCH":"2022-02-17T12:49:15.125376","NORAD_CAT_ID":"45050","CLASSIFICATION_TYPE":"U","MEAN_ANOMALY":"285.0119","FILE":"3304735","ELEMENT_SET_NO":"999","TIME_SYSTEM":"UTC","REF_FRAME":"TEME","ECCENTRICITY":"0.00015290","CENTER_NAME":"EARTH","COUNTRY_CODE":"US","OBJECT_TYPE":"PAYLOAD","DECAY_DATE":null,"TLE_LINE2":"2 45050  53.0524  95.7826 0001529  75.1039 285.0119 15.06402713113217","REV_AT_EPOCH":"11321","RA_OF_ASC_NODE":"95.7826","MEAN_MOTION_DDOT":"0.0000000000000"},{"EPOCH":"2022-02-17T20:33:22.791456","PERIAPSIS":"540.236","OBJECT_NAME":"STARLINK-1141","MEAN_ANOMALY":"284.2701","CLASSIFICATION_TYPE":"U","NORAD_CAT_ID":"45051","SITE":"AFETR","RCS_SIZE":"LARGE","EPHEMERIS_TYPE":"0","PERIOD":"95.469","MEAN_ELEMENT_THEORY":"SGP4","SEMIMAJOR_AXIS":"6919.424","ARG_OF_PERICENTER":"75.8458","OBJECT_ID":"2020-006H","BSTAR":"0.00058839000000","MEAN_MOTION_DOT":"0.00008962","INCLINATION":"53.0514","APOAPSIS":"542.341","GP_ID":"196241345","TLE_LINE1":"1 45051U 20006H   22048.85651379  .00008962  00000-0  58839-3 0  9994","MEAN_MOTION":"15.08335240","LAUNCH_DATE":"2020-01-29","MEAN_MOTION_DDOT":"0.0000000000000","RA_OF_ASC_NODE":"93.5655","OBJECT_TYPE":"PAYLOAD","REV_AT_EPOCH":"11327","TLE_LINE2":"2 45051  53.0514  93.5655 0001521  75.8458 284.2701 15.08335240113273","DECAY_DATE":null,"ECCENTRICITY":"0.00015210","REF_FRAME":"TEME","COUNTRY_CODE":"US","CENTER_NAME":"EARTH","FILE":"3305402","ELEMENT_SET_NO":"999","TIME_SYSTEM":"UTC"},{"TIME_SYSTEM":"UTC","ELEMENT_SET_NO":"999","FILE":"3305402","COUNTRY_CODE":"US","CENTER_NAME":"EARTH","ECCENTRICITY":"0.00015640","REF_FRAME":"TEME","DECAY_DATE":null,"TLE_LINE2":"2 45052  53.0528  95.4538 0001564  67.5115 292.6040 15.06402277113222","REV_AT_EPOCH":"11322","OBJECT_TYPE":"PAYLOAD","RA_OF_ASC_NODE":"95.4538","MEAN_MOTION_DDOT":"0.0000000000000","MEAN_MOTION":"15.06402277","TLE_LINE1":"1 45052U 20006J   22048.60792878  .00002882  00000-0  21228-3 0  9995","LAUNCH_DATE":"2020-01-29","GP_ID":"196241095","INCLINATION":"53.0528","APOAPSIS":"548.290","MEAN_MOTION_DOT":"0.00002882","ARG_OF_PERICENTER":"67.5115","BSTAR":"0.00021228000000","OBJECT_ID":"2020-006J","MEAN_ELEMENT_THEORY":"SGP4","SEMIMAJOR_AXIS":"6925.342","RCS_SIZE":"LARGE","EPHEMERIS_TYPE":"0","PERIOD":"95.592","SITE":"AFETR","NORAD_CAT_ID":"45052","MEAN_ANOMALY":"292.6040","CLASSIFICATION_TYPE":"U","OBJECT_NAME":"STARLINK-1148","PERIAPSIS":"546.123","EPOCH":"2022-02-17T14:35:25.046592"},{"TIME_SYSTEM":"UTC","FILE":"3305402","ELEMENT_SET_NO":"999","COUNTRY_CODE":"US","CENTER_NAME":"EARTH","ECCENTRICITY":"0.00011830","REF_FRAME":"TEME","TLE_LINE2":"2 45053  52.9996  90.8145 0001183 131.3385 228.7707 15.09058069113284","REV_AT_EPOCH":"11328","DECAY_DATE":null,"OBJECT_TYPE":"PAYLOAD","RA_OF_ASC_NODE":"90.8145","MEAN_MOTION_DDOT":"0.0000000000000","MEAN_MOTION":"15.09058069","TLE_LINE1":"1 45053U 20006K   22048.83567941  .00008687  00000-0  55984-3 0  9997","LAUNCH_DATE":"2020-01-29","GP_ID":"196242347","APOAPSIS":"539.897","INCLINATION":"52.9996","MEAN_MOTION_DOT":"0.00008687","ARG_OF_PERICENTER":"131.3385","BSTAR":"0.00055984000000","OBJECT_ID":"2020-006K","SEMIMAJOR_AXIS":"6917.214","MEAN_ELEMENT_THEORY":"SGP4","RCS_SIZE":"LARGE","EPHEMERIS_TYPE":"0","PERIOD":"95.424","SITE":"AFETR","NORAD_CAT_ID":"45053","MEAN_ANOMALY":"228.7707","CLASSIFICATION_TYPE":"U","OBJECT_NAME":"STARLINK-1155","PERIAPSIS":"538.261","EPOCH":"2022-02-17T20:03:22.701024"},{"ECCENTRICITY":"0.00014170","REF_FRAME":"TEME","COUNTRY_CODE":"US","CENTER_NAME":"EARTH","FILE":"3304735","ELEMENT_SET_NO":"999","TIME_SYSTEM":"UTC","RA_OF_ASC_NODE":"95.7838","MEAN_MOTION_DDOT":"0.0000000000000","OBJECT_TYPE":"PAYLOAD","TLE_LINE2":"2 45054  53.0546  95.7838 0001417  59.5827 300.5302 15.06400798113213","REV_AT_EPOCH":"11321","DECAY_DATE":null,"OBJECT_ID":"2020-006L","ARG_OF_PERICENTER":"59.5827","BSTAR":"0.00049636000000","MEAN_MOTION_DOT":"0.00007120","GP_ID":"196204237","APOAPSIS":"548.192","INCLINATION":"53.0546","MEAN_MOTION":"15.06400798","TLE_LINE1":"1 45054U 20006L   22048.53789700  .00007120  00000-0  49636-3 0  9992","LAUNCH_DATE":"2020-01-29","OBJECT_NAME":"STARLINK-1156","EPOCH":"2022-02-17T12:54:34.300800","PERIAPSIS":"546.230","NORAD_CAT_ID":"45054","MEAN_ANOMALY":"300.5302","CLASSIFICATION_TYPE":"U","EPHEMERIS_TYPE":"0","RCS_SIZE":"LARGE","PERIOD":"95.592","SITE":"AFETR","SEMIMAJOR_AXIS":"6925.346","MEAN_ELEMENT_THEORY":"SGP4"},{"MEAN_ANOMALY":"284.5081","CLASSIFICATION_TYPE":"U","NORAD_CAT_ID":"45057","PERIAPSIS":"546.309","EPOCH":"2022-02-17T19:37:55.687296","OBJECT_NAME":"STARLINK-1159","MEAN_ELEMENT_THEORY":"SGP4","SEMIMAJOR_AXIS":"6925.310","SITE":"AFETR","RCS_SIZE":"LARGE","EPHEMERIS_TYPE":"0","PERIOD":"95.591","MEAN_MOTION_DOT":"0.00003832","ARG_OF_PERICENTER":"75.6047","BSTAR":"0.00027593000000","OBJECT_ID":"2020-006P","TLE_LINE1":"1 45057U 20006P   22048.81800564  .00003832  00000-0  27593-3 0  9992","MEAN_MOTION":"15.06412570","LAUNCH_DATE":"2020-01-29","APOAPSIS":"548.041","INCLINATION":"53.0528","GP_ID":"196240845","MEAN_MOTION_DDOT":"0.0000000000000","RA_OF_ASC_NODE":"94.4990","TLE_LINE2":"2 45057  53.0528  94.4990 0001250  75.6047 284.5081 15.06412570113260","REV_AT_EPOCH":"11326","DECAY_DATE":null,"OBJECT_TYPE":"PAYLOAD","COUNTRY_CODE":"US","CENTER_NAME":"EARTH","ECCENTRICITY":"0.00012500","REF_FRAME":"TEME","TIME_SYSTEM":"UTC","ELEMENT_SET_NO":"999","FILE":"3305402"},{"TIME_SYSTEM":"UTC","FILE":"3305402","ELEMENT_SET_NO":"999","CENTER_NAME":"EARTH","COUNTRY_CODE":"US","REF_FRAME":"TEME","ECCENTRICITY":"0.00014250","TLE_LINE2":"2 45058  53.0531  94.5447 0001425  72.2343 287.8801 15.06399841113260","REV_AT_EPOCH":"11326","DECAY_DATE":null,"OBJECT_TYPE":"PAYLOAD","RA_OF_ASC_NODE":"94.5447","MEAN_MOTION_DDOT":"0.0000000000000","LAUNCH_DATE":"2020-01-29","MEAN_MOTION":"15.06399841","TLE_LINE1":"1 45058U 20006Q   22048.81064428  .00001412  00000-0  11364-3 0  9995","GP_ID":"196241596","APOAPSIS":"548.201","INCLINATION":"53.0531","MEAN_MOTION_DOT":"0.00001412","OBJECT_ID":"2020-006Q","ARG_OF_PERICENTER":"72.2343","BSTAR":"0.00011364000000","SEMIMAJOR_AXIS":"6925.349","MEAN_ELEMENT_THEORY":"SGP4","PERIOD":"95.592","EPHEMERIS_TYPE":"0","RCS_SIZE":"LARGE","SITE":"AFETR","NORAD_CAT_ID":"45058","CLASSIFICATION_TYPE":"U","MEAN_ANOMALY":"287.8801","OBJECT_NAME":"STARLINK-1162","PERIAPSIS":"546.227","EPOCH":"2022-02-17T19:27:19.665792"}];
